NORAD_CAT_ID,OBJECT_NAME,OBJECT_TYPE,EPOCH,MEAN_MOTION,ECCENTRICITY,INCLINATION,RA_OF_ASC_NODE,ARG_OF_PERICENTER,MEAN_ANOMALY,BSTAR,MEAN_MOTION_DOT,MEAN_MOTION_DDOT,TLE_LINE0,TLE_LINE1,TLE_LINE2,SEMIMAJOR_AXIS,PERIOD,APOGEE,PERIGEE,DECAYED
54808.0,STARLINK-5413,PAYLOAD,2024-06-04 00:02:10,15.0884012,0.0001522,53.2197,23.9237,103.0011,257.1151,6.1638e-05,6.93e-06,0.0,0 STARLINK-5413,1 54808U 22175BC  24156.00151461  .00000693  00000-0  61638-4 0  9994,2 54808  53.2197  23.9237 0001522 103.0011 257.1151 15.08840120 81006,6917.88,95.438,540.798,538.692,0.0
54808.0,STARLINK-5413,PAYLOAD,2024-06-04 07:59:05,15.08856886,0.0001017,53.2186,22.4322,76.0902,284.0203,0.00018754,2.7e-05,0.0,0 STARLINK-5413,1 54808U 22175BC  24156.33269917  .00002700  00000-0  18754-3 0  9997,2 54808  53.2186  22.4322 0001017  76.0902 284.0203 15.08856886 81058,6917.829,95.436,540.397,538.99,0.0
54808.0,STARLINK-5413,PAYLOAD,2024-06-04 23:52:57,15.08838689,0.0001229,53.226,19.4619,91.8482,268.2651,6.3091e-05,7.16e-06,0.0,0 STARLINK-5413,1 54808U 22175BC  24156.99511436  .00000716  00000-0  63091-4 0  9995,2 54808  53.2260  19.4619 0001229  91.8482 268.2651 15.08838689 81152,6917.884,95.438,540.6,538.899,0.0
54808.0,STARLINK-5413,PAYLOAD,2024-06-06 07:40:40,15.0883895,0.0001748,53.2217,13.5136,81.5719,278.5472,0.00011778,1.587e-05,0.0,0 STARLINK-5413,1 54808U 22175BC  24158.31991723  .00001587  00000-0  11778-3 0  9995,2 54808  53.2217  13.5136 0001748  81.5719 278.5472 15.08838950 81356,6917.884,95.438,540.958,538.539,0.0
54808.0,STARLINK-5413,PAYLOAD,2024-06-06 23:34:33,15.0883711,0.0003031,53.2192,10.5387,84.5772,275.5566,2.5778e-05,1.22e-06,0.0,0 STARLINK-5413,1 54808U 22175BC  24158.98232685  .00000122  00000-0  25778-4 0  9993,2 54808  53.2192  10.5387 0003031  84.5772 275.5566 15.08837110 81451,6917.889,95.438,541.851,537.657,0.0
54808.0,STARLINK-5413,PAYLOAD,2024-06-07 07:31:29,15.08842173,0.0005112,53.2178,9.0502,84.3047,275.8528,7.8286e-05,9.57e-06,0.0,0 STARLINK-5413,1 54808U 22175BC  24159.31353120  .00000957  00000-0  78286-4 0  9997,2 54808  53.2178   9.0502 0005112  84.3047 275.8528 15.08842173 83663,6917.874,95.437,543.275,536.202,0.0
54808.0,STARLINK-5413,PAYLOAD,2024-06-07 20:14:32,15.08851523,0.0002212,53.2174,6.6716,89.0752,271.0494,0.00013436,1.851e-05,0.0,0 STARLINK-5413,1 54808U 22175BC  24159.84342983  .00001851  00000-0  13436-3 0  9999,2 54808  53.2174   6.6716 0002212  89.0752 271.0494 15.08851523 81580,6917.845,95.437,541.24,538.18,0.0
54808.0,STARLINK-5413,PAYLOAD,2024-06-08 07:22:15,15.08838458,0.0002168,53.2202,4.5892,98.1578,261.966,0.00012762,1.743e-05,0.0,0 STARLINK-5413,1 54808U 22175BC  24160.30711840  .00001743  00000-0  12762-3 0  9995,2 54808  53.2202   4.5892 0002168  98.1578 261.9660 15.08838458 83814,6917.885,95.438,541.25,538.25,0.0
54808.0,STARLINK-5413,PAYLOAD,2024-06-08 20:05:20,15.08840637,0.0002189,53.2187,2.2105,98.6596,261.4644,0.00012672,1.729e-05,0.0,0 STARLINK-5413,1 54808U 22175BC  24160.83703751  .00001729  00000-0  12672-3 0  9999,2 54808  53.2187   2.2105 0002189  98.6596 261.4644 15.08840637 81734,6917.878,95.438,541.258,538.229,0.0
54808.0,STARLINK-5413,PAYLOAD,2024-06-08 21:40:43,15.08837344,0.0001657,53.2182,1.9151,89.4126,270.7056,-0.00010236,-1.917e-05,0.0,0 STARLINK-5413,1 54808U 22175BC  24160.90328060 -.00001917  00000-0 -10236-3 0  9998,2 54808  53.2182   1.9151 0001657  89.4126 270.7056 15.08837344 83904,6917.889,95.438,540.9,538.607,0.0
54808.0,STARLINK-5413,PAYLOAD,2024-06-09 13:34:34,15.08835366,0.0001323,53.217,358.9416,92.6958,267.4185,7.3478e-05,8.82e-06,0.0,0 STARLINK-5413,1 54808U 22175BC  24161.56568221  .00000882  00000-0  73478-4 0  9992,2 54808  53.2170 358.9416 0001323  92.6958 267.4185 15.08835366 81848,6917.895,95.438,540.675,538.844,0.0
54808.0,STARLINK-5413,PAYLOAD,2024-06-09 19:56:07,15.08834741,0.0001191,53.217,357.7523,87.6985,272.4143,7.2759e-05,8.7e-06,0.0,0 STARLINK-5413,1 54808U 22175BC  24161.83064446  .00000870  00000-0  72759-4 0  9990,2 54808  53.2170 357.7523 0001191  87.6985 272.4143 15.08834741 84042,6917.896,95.438,540.585,538.938,0.0
54808.0,STARLINK-5413,PAYLOAD,2024-06-10 05:28:26,15.08838879,0.0002043,53.2209,355.9683,96.0972,264.0253,6.1273e-05,6.87e-06,0.0,0 STARLINK-5413,1 54808U 22175BC  24162.22808345  .00000687  00000-0  61273-4 0  9993,2 54808  53.2209 355.9683 0002043  96.0972 264.0253 15.08838879 84101,6917.884,95.438,541.162,538.335,0.0
54808.0,STARLINK-5413,PAYLOAD,2024-06-10 18:11:31,15.08834657,0.0001681,53.2218,353.5903,96.8926,263.2257,0.00010797,1.43e-05,0.0,0 STARLINK-5413,1 54808U 22175BC  24162.75800601  .00001430  00000-0  10797-3 0  9999,2 54808  53.2218 353.5903 0001681  96.8926 263.2257 15.08834657 82028,6917.897,95.438,540.925,538.599,0.0
54808.0,STARLINK-5413,PAYLOAD,2024-06-10 22:57:40,15.08842324,0.0001211,53.2182,352.6976,90.6219,269.4912,0.00019672,2.845e-05,0.0,0 STARLINK-5413,1 54808U 22175BC  24162.95671976  .00002845  00000-0  19672-3 0  9994,2 54808  53.2182 352.6976 0001211  90.6219 269.4912 15.08842324 82053,6917.873,95.437,540.576,538.901,0.0
54808.0,STARLINK-5413,PAYLOAD,2024-06-11 05:19:12,15.08853238,0.0001065,53.2176,351.509,98.3407,261.7706,0.00025394,3.757e-05,0.0,0 STARLINK-5413,1 54808U 22175BC  24163.22167044  .00003757  00000-0  25394-3 0  9992,2 54808  53.2176 351.5090 0001065  98.3407 261.7706 15.08853238 84258,6917.84,95.437,540.442,538.968,0.0
54808.0,STARLINK-5413,PAYLOAD,2024-06-12 05:09:59,15.08852127,0.0001185,53.2187,347.0473,89.1578,270.955,0.00017137,2.441e-05,0.0,0 STARLINK-5413,1 54808U 22175BC  24164.21527454  .00002441  00000-0  17137-3 0  9992,2 54808  53.2187 347.0473 0001185  89.1578 270.9550 15.08852127 82247,6917.843,95.437,540.528,538.889,0.0
54808.0,STARLINK-5413,PAYLOAD,2024-06-12 19:28:28,15.08835887,0.0001243,53.2175,344.3737,94.7691,265.3443,-8.4178e-05,-1.627e-05,0.0,0 STARLINK-5413,1 54808U 22175BC  24164.81144670 -.00001627  00000-0 -84178-4 0  9990,2 54808  53.2175 344.3737 0001243  94.7691 265.3443 15.08835887 82333,6917.893,95.438,540.618,538.898,0.0
54808.0,STARLINK-5413,PAYLOAD,2024-06-12 21:03:52,15.08837789,0.0001339,53.2179,344.0768,95.6102,264.5043,-4.5482e-05,-1.012e-05,0.0,0 STARLINK-5413,1 54808U 22175BC  24164.87768622 -.00001012  00000-0 -45482-4 0  9998,2 54808  53.2179 344.0768 0001339  95.6102 264.5043 15.08837789 84502,6917.887,95.438,540.678,538.826,0.0
54808.0,STARLINK-5413,PAYLOAD,2024-06-13 11:22:20,15.08840944,0.0001448,53.2185,341.3977,80.6911,279.4245,-2.3187e-05,-6.57e-06,0.0,0 STARLINK-5413,1 54808U 22175BC  24165.47384448 -.00000657  00000-0 -23187-4 0  9997,2 54808  53.2185 341.3977 0001448  80.6911 279.4245 15.08840944 84599,6917.878,95.437,540.744,538.741,0.0
54808.0,STARLINK-5413,PAYLOAD,2024-06-13 17:43:52,15.0884068,0.000135,53.2185,340.2092,87.1792,272.9354,9.9648e-05,1.298e-05,0.0,0 STARLINK-5413,1 54808U 22175BC  24165.73880635  .00001298  00000-0  99648-4 0  9990,2 54808  53.2185 340.2092 0001350  87.1792 272.9354 15.08840680 84637,6917.878,95.438,540.677,538.809,0.0
54808.0,STARLINK-5413,PAYLOAD,2024-06-14 11:13:07,15.08839491,0.0001763,53.2183,336.9387,81.7659,278.3534,0.00024052,3.542e-05,0.0,0 STARLINK-5413,1 54808U 22175BC  24166.46744879  .00003542  00000-0  24052-3 0  9990,2 54808  53.2183 336.9387 0001763  81.7659 278.3534 15.08839491 84744,6917.882,95.438,540.967,538.527,0.0
54808.0,STARLINK-5413,PAYLOAD,2024-06-14 17:34:40,15.08838287,0.00012,53.2177,335.7492,83.4164,276.6964,0.00018928,2.726e-05,0.0,0 STARLINK-5413,1 54808U 22175BC  24166.73240845  .00002726  00000-0  18928-3 0  9992,2 54808  53.2177 335.7492 0001200  83.4164 276.6964 15.08838287 84781,6917.886,95.438,540.581,538.92,0.0
54808.0,STARLINK-5413,PAYLOAD,2024-06-15 04:42:21,15.08850821,0.0001186,53.2174,333.6669,91.0024,269.1105,0.00030403,4.555e-05,0.0,0 STARLINK-5413,1 54808U 22175BC  24167.19608134  .00004555  00000-0  30403-3 0  9996,2 54808  53.2174 333.6669 0001186  91.0024 269.1105 15.08850821 84854,6917.847,95.437,540.533,538.892,0.0
54808.0,STARLINK-5413,PAYLOAD,2024-06-15 17:25:26,15.08841945,0.0001533,53.2199,331.2869,104.4225,255.6937,7.6215e-05,9.25e-06,0.0,0 STARLINK-5413,1 54808U 22175BC  24167.72600541  .00000925  00000-0  76215-4 0  9998,2 54808  53.2199 331.2869 0001533 104.4225 255.6937 15.08841945 84934,6917.874,95.437,540.8,538.679,0.0
54808.0,STARLINK-5413,PAYLOAD,2024-06-16 14:05:27,15.08841792,0.0001855,53.2197,327.4192,112.5269,247.592,0.000189,2.721e-05,0.0,0 STARLINK-5413,1 54808U 22175BC  24168.58712595  .00002721  00000-0  18900-3 0  9998,2 54808  53.2197 327.4192 0001855 112.5269 247.5920 15.08841792 85060,6917.875,95.437,541.023,538.457,0.0
54808.0,STARLINK-5413,PAYLOAD,2024-06-16 20:27:00,15.08841196,0.0001396,53.2193,326.233,94.8692,265.246,6.2384e-05,7.05e-06,0.0,0 STARLINK-5413,1 54808U 22175BC  24168.85208585  .00000705  00000-0  62384-4 0  9993,2 54808  53.2193 326.2330 0001396  94.8692 265.2460 15.08841196 85108,6917.877,95.437,540.707,538.776,0.0
54808.0,STARLINK-5413,PAYLOAD,2024-06-17 17:07:01,15.08836215,0.0001088,53.2164,322.3687,84.7275,275.3841,0.00011102,1.479e-05,0.0,0 STARLINK-5413,1 54808U 22175BC  24169.71321062  .00001479  00000-0  11102-3 0  9995,2 54808  53.2164 322.3687 0001088  84.7275 275.3841 15.08836215 83076,6917.892,95.438,540.51,539.004,0.0
54808.0,STARLINK-5413,PAYLOAD,2024-06-18 13:47:02,15.08834216,0.0001771,53.2179,318.5011,84.9427,275.1767,9.2315e-05,1.181e-05,0.0,0 STARLINK-5413,1 54808U 22175BC  24170.57433154  .00001181  00000-0  92315-4 0  9993,2 54808  53.2179 318.5011 0001771  84.9427 275.1767 15.08834216 85368,6917.898,95.438,540.988,538.538,0.0
54808.0,STARLINK-5413,PAYLOAD,2024-06-18 16:57:48,15.08835089,0.0001323,53.2193,317.9092,88.2974,271.817,0.00018039,2.584e-05,0.0,0 STARLINK-5413,1 54808U 22175BC  24170.70681472  .00002584  00000-0  18039-3 0  9994,2 54808  53.2193 317.9092 0001323  88.2974 271.8170 15.08835089 85385,6917.895,95.438,540.676,538.845,0.0
